ONEWEB-0369             
1 49295U 21090S   24104.54617802  .00000046  00000+0  83043-4 0  9996
2 49295  87.9100 103.1303 0001788  88.6836 271.4502 13.19726027121609
ONEWEB-0370             
1 49296U 21090T   24104.86258636  .00000045  00000+0  78370-4 0  9994
2 49296  87.9170  72.4932 0002031  82.9865 277.1499 13.20769924125016
ONEWEB-0371             
1 49297U 21090U   24104.47825357  .00000054  00000+0  10355-3 0  9990
2 49297  87.9101 103.1342 0001851  93.1241 267.0104 13.19726502121637
ONEWEB-0372             
1 49298U 21090V   24104.85139881  .00000055  00000+0  10345-3 0  9993
2 49298  87.9170  72.5036 0001803  85.0582 275.0757 13.20770898124981
ONEWEB-0373             
1 49299U 21090W   24104.87837909 -.00000054  00000+0 -16474-3 0  9992
2 49299  87.9167  72.5151 0001924  73.9675 286.1670 13.20770591126179
ONEWEB-0374             
1 49300U 21090X   24104.90575996 -.00000445  00000+0 -12347-2 0  9992
2 49300  87.8906  87.7564 0001869  82.8290 277.3052 13.14502034123214
ONEWEB-0375             
1 49301U 21090Y   24104.86574672  .00000051  00000+0  94458-4 0  9994
2 49301  87.9168  72.4934 0002563  72.7668 287.3745 13.20770385125672
ONEWEB-0376             
1 49302U 21090Z   24104.55247287  .00000097  00000+0  20988-3 0  9996
2 49302  87.9091 103.1317 0001651  92.7714 267.3608 13.19726374121642
